IRNSS-1E                
1 41241U 16003A   26087.85203139 -.00000293  00000+0  00000+0 0  9999
2 41241  33.0629  60.9056 0017100 186.6338 357.2752  1.00274691 37277
